H1 CPF 01  gfz 2021 08 06 12  7182 tandemx   
H2 1003001  6202 36605    2021 08 06 12 59 42 2021 08 11 00 00 42   120 1 1  0 0 0
H9
10 0 59433  59742.000000  0    3948533.956   2276900.810  -5172827.415
10 0 59433  59862.000000  0    4603386.179   2396418.213  -4538050.191
10 0 59433  59982.000000  0    5179824.457   2463491.243  -3823802.246
10 0 59433  60102.000000  0    5666811.834   2478375.402  -3042519.109
10 0 59433  60222.000000  0    6054865.110   2442413.955  -2207842.117
10 0 59433  60342.000000  0    6336251.083   2357991.012  -1334382.660
10 0 59433  60462.000000  0    6505149.991   2228462.050   -437465.097
10 0 59433  60582.000000  0    6557784.347   2058063.615    467147.075
10 0 59433  60702.000000  0    6492505.338   1851803.365   1363535.674
10 0 59433  60822.000000  0    6309839.661   1615335.411   2235914.631
10 0 59433  60942.000000  0    6012492.266   1354821.617   3068918.289
10 0 59433  61062.000000  0    5605303.718   1076783.321   3847879.710
10 0 59433  61182.000000  0    5095164.438    787947.616   4559094.973
10 0 59433  61302.000000  0    4490889.247    495092.488   5190065.674
10 0 59433  61422.000000  0    3803055.952    204894.073   5729718.999
10 0 59433  61542.000000  0    3043809.450    -76220.901   6168598.858
10 0 59433  61662.000000  0    2226639.552   -342212.112   6499024.855
10 0 59433  61782.000000  0    1366137.013   -587551.369   6715221.214
10 0 59433  61902.000000  0     477729.480   -807335.065   6813413.311
10 0 59433  62022.000000  0    -422597.176   -997380.533   6791888.531
10 0 59433  62142.000000  0   -1318585.949  -1154305.154   6651023.359
10 0 59433  62262.000000  0   -2194001.002  -1275586.634   6393276.310
10 0 59433  62382.000000  0   -3032919.794  -1359602.917   6023147.389
10 0 59433  62502.000000  0   -3820023.205  -1405652.236   5547106.830
10 0 59433  62622.000000  0   -4540880.159  -1413954.029   4973488.723
10 0 59433  62742.000000  0   -5182218.806  -1385629.308   4312350.446
10 0 59433  62862.000000  0   -5732178.843  -1322660.288   3575299.737
10 0 59433  62982.000000  0   -6180538.800  -1227830.187   2775292.989
10 0 59433  63102.000000  0   -6518915.631  -1104645.196   1926408.962
10 0 59433  63222.000000  0   -6740932.651   -957240.029   1043597.639
10 0 59433  63342.000000  0   -6842346.392   -790268.756    142409.395
10 0 59433  63462.000000  0   -6821130.747   -608783.857   -761287.292
10 0 59433  63582.000000  0   -6677516.634   -418106.772  -1651594.544
10 0 59433  63702.000000  0   -6413985.234   -223693.178  -2512872.432
10 0 59433  63822.000000  0   -6035218.659    -30997.476  -3330019.657
10 0 59433  63942.000000  0   -5548005.846    154661.942  -4088743.586
10 0 59433  64062.000000  0   -4961107.077    328231.976  -4775809.982
10 0 59433  64182.000000  0   -4285083.237    485045.941  -5379269.440
10 0 59433  64302.000000  0   -3532094.197    620933.791  -5888657.487
10 0 59433  64422.000000  0   -2715670.788    732318.022  -6295165.422
10 0 59433  64542.000000  0   -1850467.259    816294.820  -6591780.082
10 0 59433  64662.000000  0    -951997.512    870699.305  -6773394.394
10 0 59433  64782.000000  0     -36359.627    894153.629  -6836884.706
10 0 59433  64902.000000  0     880045.032    886096.926  -6781157.934
10 0 59433  65022.000000  0    1780798.091    846796.987  -6607171.064
10 0 59433  65142.000000  0    2649752.829    777343.898  -6317916.823
10 0 59433  65262.000000  0    3471318.549    679625.582  -5918377.409
10 0 59433  65382.000000  0    4230736.853    556284.959  -5415446.643
10 0 59433  65502.000000  0    4914346.648    410659.437  -4817822.513
10 0 59433  65622.000000  0    5509834.996    246704.450  -4135868.425
10 0 59433  65742.000000  0    6006466.960     68901.108  -3381443.075
10 0 59433  65862.000000  0    6395289.418   -117849.756  -2567702.517
10 0 59433  65982.000000  0    6669305.896   -308345.332  -1708875.906
10 0 59433  66102.000000  0    6823615.310   -497207.598   -820016.577
10 0 59433  66222.000000  0    6855510.401   -679015.611     83264.779
10 0 59433  66342.000000  0    6764534.098   -848440.951    985080.041
10 0 59433  66462.000000  0    6552490.516  -1000382.535   1869551.273
10 0 59433  66582.000000  0    6223411.168  -1130097.165   2721099.786
10 0 59433  66702.000000  0    5783473.704  -1233322.044   3524729.550
10 0 59433  66822.000000  0    5240879.551  -1306386.350   4266296.958
10 0 59433  66942.000000  0    4605692.106  -1346310.140   4932763.750
10 0 59433  67062.000000  0    3889639.927  -1350885.973   5512426.622
10 0 59433  67182.000000  0    3105890.970  -1318742.627   5995120.957
10 0 59433  67302.000000  0    2268801.833  -1249390.522   6372394.392
10 0 59433  67422.000000  0    1393649.495  -1143247.445   6637649.103
10 0 59433  67542.000000  0     496348.204  -1001644.077   6786252.032
10 0 59433  67662.000000  0    -406842.018   -826808.520   6815609.969
10 0 59433  67782.000000  0   -1299609.372   -621831.304   6725210.694
10 0 59433  67902.000000  0   -2165883.355   -390610.912   6516631.113
10 0 59433  68022.000000  0   -2990122.571   -137780.339   6193511.777
10 0 59433  68142.000000  0   -3757594.095    131383.971   5761498.547
10 0 59433  68262.000000  0   -4454640.414    411069.297   5228150.180
10 0 59433  68382.000000  0   -5068928.299    695048.200   4602811.909
10 0 59433  68502.000000  0   -5589675.272    976812.350   3896456.807
10 0 59433  68622.000000  0   -6007847.465   1249716.134   3121496.019
10 0 59433  68742.000000  0   -6316325.717   1507126.849   2291562.098
10 0 59433  68862.000000  0   -6510035.913   1742577.619   1421267.398
10 0 59433  68982.000000  0   -6586040.289   1949920.013    525941.934
10 0 59433  69102.000000  0   -6543585.211   2123472.199   -378644.998
10 0 59433  69222.000000  0   -6384104.168   2258157.838  -1276571.589
10 0 59433  69342.000000  0   -6111177.010   2349633.065  -2152052.137
10 0 59433  69462.000000  0   -5730446.736   2394398.819  -2989722.695
10 0 59433  69582.000000  0   -5249494.078   2389894.695  -3774916.643
10 0 59433  69702.000000  0   -4677675.518   2334571.726  -4493922.773
10 0 59433  69822.000000  0   -4025930.004   2227943.548  -5134221.836
10 0 59433  69942.000000  0   -3306559.533   2070615.407  -5684697.271
10 0 59433  70062.000000  0   -2532990.445   1864290.839  -6135818.332
10 0 59433  70182.000000  0   -1719518.629   1611755.934  -6479795.160
10 0 59433  70302.000000  0    -881043.410   1316841.390  -6710700.934
10 0 59433  70422.000000  0     -32798.010    984363.794  -6824562.975
10 0 59433  70542.000000  0     809920.635    620047.846  -6819423.008
10 0 59433  70662.000000  0    1632020.933    230429.964  -6695369.479
10 0 59433  70782.000000  0    2418881.754   -177256.548  -6454535.708
10 0 59433  70902.000000  0    3156606.715   -595211.771  -6101067.332
10 0 59433  71022.000000  0    3832267.026  -1015213.926  -5641057.856
10 0 59433  71142.000000  0    4434126.954  -1428775.944  -5082453.975
10 0 59433  71262.000000  0    4951852.029  -1827313.449  -4434930.567
10 0 59433  71382.000000  0    5376693.446  -2202319.938  -3709733.822
10 0 59433  71502.000000  0    5701645.494  -2545545.472  -2919495.119
10 0 59433  71622.000000  0    5921572.072  -2849175.477  -2078016.713
10 0 59433  71742.000000  0    6033297.815  -3106005.265  -1200032.622
10 0 59433  71862.000000  0    6035661.989  -3309605.930   -300949.655
10 0 59433  71982.000000  0    5929532.712  -3454477.705    603427.689
10 0 59433  72102.000000  0    5717781.036  -3536186.633   1497181.930
10 0 59433  72222.000000  0    5405213.926  -3551480.308   2364573.146
10 0 59433  72342.000000  0    4998466.169  -3498378.538   3190324.642
10 0 59433  72462.000000  0    4505857.581  -3376238.050   3959899.053
10 0 59433  72582.000000  0    3937218.664  -3185788.937   4659758.565
10 0 59433  72702.000000  0    3303688.106  -2929144.020   5277606.362
10 0 59433  72822.000000  0    2617486.557  -2609778.207   5802601.602
10 0 59433  72942.000000  0    1891674.945  -2232480.235   6225545.885
10 0 59433  73062.000000  0    1139900.970  -1803278.720   6539038.985
10 0 59433  73182.000000  0     376139.382  -1329343.397   6737602.310
10 0 59433  73302.000000  0    -385568.943   -818863.226   6817768.744
10 0 59433  73422.000000  0   -1131374.540   -280903.887   6778138.656
10 0 59433  73542.000000  0   -1847869.938    274752.923   6619402.671
10 0 59433  73662.000000  0   -2522329.767    837786.853   6344330.521
10 0 59433  73782.000000  0   -3142936.897   1397529.611   5957726.030
10 0 59433  73902.000000  0   -3698991.269   1943166.174   5466348.887
10 0 59433  74022.000000  0   -4181098.824   2463943.900   4878803.298
10 0 59433  74142.000000  0   -4581336.359   2949386.217   4205393.101
10 0 59433  74262.000000  0   -4893388.402   3389504.802   3457944.398
10 0 59433  74382.000000  0   -5112652.736   3775007.145   2649600.033
10 0 59433  74502.000000  0   -5236312.978   4097495.028   1794588.367
10 0 59433  74622.000000  0   -5263376.324   4349648.835    907968.916
10 0 59433  74742.000000  0   -5194673.191   4525391.783      5359.690
10 0 59433  74862.000000  0   -5032820.032   4620029.617   -897345.547
10 0 59433  74982.000000  0   -4782146.544   4630364.277  -1784266.732
10 0 59433  75102.000000  0   -4448586.910   4554776.461  -2639826.471
10 0 59433  75222.000000  0   -4039539.674   4393274.298  -3449030.378
10 0 59433  75342.000000  0   -3563699.821   4147508.900  -4197732.783
10 0 59433  75462.000000  0   -3030868.792   3820757.109  -4872882.095
10 0 59433  75582.000000  0   -2451748.440   3417872.842  -5462741.889
10 0 59433  75702.000000  0   -1837724.003   2945209.896  -5957086.976
10 0 59433  75822.000000  0   -1200638.340   2410515.757  -6347371.250
10 0 59433  75942.000000  0    -552563.789   1822799.655  -6626863.491
10 0 59433  76062.000000  0      94423.554   1192179.343  -6790752.108
10 0 59433  76182.000000  0     728463.388    529707.957  -6836219.059
99
